From: horizons@ssd.jpl.nasa.gov (Horizons Ephemeris System)
Subject: [Horizons] SMALL BODY #C(500@10)_T(Nevski (C/2013 V3)) (1/1)
Date: February 16, 2021 at 11:04:59 AM PST

Automated mail xmit by MAIL_REQUEST, PID= 28663 Tue Feb 16 11:04:59 2021
++++++++++++++++++++++++++++++++ (part 1 of 1)  +++++++++++++++++++++++++++++++


*******************************************************************************
Ephemeris / MAIL_REQUEST Tue Feb 16 11:04:59 2021 Pasadena, USA  / Horizons
*******************************************************************************
Target body name: Nevski (C/2013 V3)              {source: JPL#31}
Center body name: Sun (10)                        {source: DE431}
Center-site name: BODY CENTER
*******************************************************************************
Start time      : A.D. 2010-Oct-29 00:00:00.0000 TDB
Stop  time      : A.D. 2016-Oct-29 00:00:00.0000 TDB
Step-size       : 20160 minutes
*******************************************************************************
Center geodetic : 0.00000000,0.00000000,0.0000000 {E-lon(deg),Lat(deg),Alt(km)}
Center cylindric: 0.00000000,0.00000000,0.0000000 {E-lon(deg),Dxy(km),Dz(km)}
Center radii    : 696000.0 x 696000.0 x 696000.0 k{Equator, meridian, pole}    
Small perturbers: Yes                             {source: SB431-N16}
Output units    : AU-D
Output type     : GEOMETRIC cartesian states
Output format   : 3 (position, velocity, LT, range, range-rate)
Reference frame : Ecliptic of J2000.0
*******************************************************************************
Initial IAU76/J2000 heliocentric ecliptic osculating elements (au, days, deg.):
 EPOCH=  2456629.5 ! 2013-Dec-03.0000000 (TDB)    RMSW= n.a.                  
  EC= .8909685922028165   QR= 1.386692685403626   TP= 2456595.4058257584      
  OM= 100.9181160202745   W= 339.6433006262093    IN= 32.13447939562106       
 Equivalent ICRF heliocentric equatorial cartesian coordinates (au, au/d):
  X=-4.220175135953236E-01  Y= 1.245369132198301E+00  Z= 6.423329144276033E-01
 VX=-1.652721873713522E-02 VY=-5.155256370474021E-03 VZ= 9.023088112088525E-03
Comet physical (GM= km^3/s^2; RAD= km):                                        
  GM= n.a.                RAD= n.a.                                           
  M1=  15.2     M2=  n.a.     k1=  7.     k2= n.a.     PHCOF= n.a.            
*******************************************************************************
           JDTDB,            Calendar Date (TDB),                      X,                      Y,                      Z,                     VX,                     VY,                     VZ,                     LT,                     RG,                     RR,
**************************************************************************************************************************************************************************************************************************************************************************
$$SOE
2455498.500000000, A.D. 2010-Oct-29 00:00:00.0000,  3.814345782724269E+00, -8.389770367772535E+00, -1.355614446369247E+00, -4.955510651661939E-05,  6.304955128007046E-03, -7.162328353880305E-04,  5.380079658685787E-02,  9.315319162613029E+00, -5.594570569862077E-03,
2455512.500000000, A.D. 2010-Nov-12 00:00:00.0000,  3.813512835771889E+00, -8.301198297906163E+00, -1.365592454246463E+00, -6.951956910185499E-05,  6.348302695551180E-03, -7.091583426199275E-04,  5.334703943142410E-02,  9.236753546612142E+00, -5.629165242536208E-03,
2455526.500000000, A.D. 2010-Nov-26 00:00:00.0000,  3.812396892592028E+00, -8.212014906581521E+00, -1.375469779607859E+00, -8.998603420383605E-05,  6.392290069830245E-03, -7.018480407770561E-04,  5.289046634197314E-02,  9.157700366750211E+00, -5.664224747534091E-03,
2455540.500000000, A.D. 2010-Dec-10 00:00:00.0000,  3.810990797828612E+00, -8.122211100469745E+00, -1.385243053928687E+00, -1.109729058126752E-04,  6.436936316422067E-03, -6.942922946786847E-04,  5.243103920984564E-02,  9.078153024717418E+00, -5.699761681218338E-03,
2455554.500000000, A.D. 2010-Dec-24 00:00:00.0000,  3.809287155010878E+00, -8.031777530776182E+00, -1.394908774202387E+00, -1.324945118789554E-04,  6.482260406054744E-03, -6.864815500107967E-04,  5.196871903758932E-02,  8.998104768314203E+00, -5.735786069584937E-03,
2455568.500000000, A.D. 2011-Jan-07 00:00:00.0000,  3.807278373060006E+00, -7.940704488729631E+00, -1.404463294037138E+00, -1.545693996002152E-04,  6.528295173907893E-03, -6.784043691800845E-04,  5.150346557212382E-02,  8.917548627935764E+00, -5.772321479375521E-03,
2455582.500000000, A.D. 2011-Jan-21 00:00:00.0000,  3.804956476126880E+00, -7.848981833826279E+00, -1.413902794747555E+00, -1.772302241928967E-04,  6.575065403690131E-03, -6.700482404826518E-04,  5.103523651792522E-02,  8.836477280339139E+00, -5.809389589387071E-03,
2455596.500000000, A.D. 2011-Feb-04 00:00:00.0000,  3.802313061175473E+00, -7.756599132147407E+00, -1.423223286100529E+00, -2.005051603266019E-04,  6.622591107419754E-03, -6.614009391581117E-04,  5.056398820948001E-02,  8.754883165075038E+00, -5.847005110527343E-03,
2455610.500000000, A.D. 2011-Feb-18 00:00:00.0000,  3.799339332310941E+00, -7.663545656450897E+00, -1.432420601774376E+00, -2.244228836443997E-04,  6.670893862931754E-03, -6.524494825809431E-04,  5.008967575801940E-02,  8.672758509894070E+00, -5.885183616968235E-03,
2455624.500000000, A.D. 2011-Mar-04 00:00:00.0000,  3.796026077810849E+00, -7.569810380992674E+00, -1.441490388233776E+00, -2.490140087720251E-04,  6.719994239276755E-03, -6.431801510963283E-04,  4.961225302988904E-02,  8.590095327001606E+00, -5.923939826146397E-03,
2455638.500000000, A.D. 2011-Mar-18 00:00:00.0000,  3.792363665409063E+00, -7.475382015666394E+00, -1.450428097779732E+00, -2.743062759992465E-04,  6.769909763858310E-03, -6.335790513294007E-04,  4.913167287969028E-02,  8.506885453424912E+00, -5.963283538993397E-03,
2455652.500000000, A.D. 2011-Apr-01 00:00:00.0000,  3.788342125972146E+00, -7.380248969760763E+00, -1.459228983412315E+00, -3.003231872816140E-04,  6.820669004548717E-03, -6.236310562825775E-04,  4.864788726279944E-02,  8.423120570495266E+00, -6.003231396274341E-03,
2455666.500000000, A.D. 2011-Apr-15 00:00:00.0000,  3.783951050545611E+00, -7.284399210135436E+00, -1.467888067500079E+00, -3.271037199319824E-04,  6.872300906305401E-03, -6.133188381136606E-04,  4.816084632296018E-02,  8.338792045869480E+00, -6.043806354339069E-03,
2455680.500000000, A.D. 2011-Apr-29 00:00:00.0000,  3.779179492590327E+00, -7.187820374135885E+00, -1.476400131328621E+00, -3.546833636714740E-04,  6.924826594638806E-03, -6.026252480596688E-04,  4.767049880276020E-02,  8.253891004601732E+00, -6.085021689197756E-03,
2455694.500000000, A.D. 2011-May-13 00:00:00.0000,  3.774016030292317E+00, -7.090499778895690E+00, -1.484759710432356E+00, -3.830958166839487E-04,  6.978270914499651E-03, -5.915321845774469E-04,  4.717679235386054E-02,  8.168408382858095E+00, -6.126891877685637E-03,
2455708.500000000, A.D. 2011-May-27 00:00:00.0000,  3.768448756296444E+00, -6.992424375013809E+00, -1.492961078211944E+00, -4.123769377360883E-04,  7.032660959105310E-03, -5.800203110701821E-04,  4.667967338091417E-02,  8.082334900891897E+00, -6.169432983442716E-03,
2455722.500000000, A.D. 2011-Jun-10 00:00:00.0000,  3.762465250385149E+00, -6.893580735697615E+00, -1.500998230266957E+00, -4.425631402946261E-04,  7.088023141728669E-03, -5.680693936100968E-04,  4.617908703149965E-02,  7.995661061300783E+00, -6.212659176663573E-03,
2455736.500000000, A.D. 2011-Jun-24 00:00:00.0000,  3.756052625233493E+00, -6.793955033757366E+00, -1.508864873674063E+00, -4.736853097146665E-04,  7.144391841688375E-03, -5.556580912796114E-04,  4.567497734218200E-02,  7.908377174316354E+00, -6.256587135480779E-03,
2455750.500000000, A.D. 2011-Jul-08 00:00:00.0000,  3.749197476081748E+00, -6.693532855918552E+00, -1.516554393184558E+00, -5.057899327125538E-04,  7.201811693145599E-03, -5.427617520095619E-04,  4.516728631362947E-02,  7.820473197665618E+00, -6.301248091305884E-03,
2455764.500000000, A.D. 2011-Jul-22 00:00:00.0000,  3.741885682232305E+00, -6.592299238803714E+00, -1.524059820691338E+00, -5.389284733328785E-04,  7.260317642139994E-03, -5.293549164872423E-04,  4.465595369540652E-02,  7.731938699309047E+00, -6.346665248283189E-03,
2455778.500000000, A.D. 2011-Aug-05 00:00:00.0000,  3.734102418231352E+00, -6.490238717703243E+00, -1.531373823402554E+00, -5.731516035203559E-04,  7.319947440227978E-03, -5.154107014168848E-04,  4.414091742976654E-02,  7.642762934280902E+00, -6.392861722981681E-03,
2455792.500000000, A.D. 2011-Aug-19 00:00:00.0000,  3.725832117744672E+00, -6.387335277342800E+00, -1.538488677738343E+00, -6.085148327684025E-04,  7.380741461200871E-03, -5.009001481241512E-04,  4.362211348274114E-02,  7.552934815443241E+00, -6.439862966923623E-03,
2455806.500000000, A.D. 2011-Sep-02 00:00:00.0000,  3.717058401146113E+00, -6.283572338912021E+00, -1.545396240616693E+00, -6.450783219261928E-04,  7.442739160545882E-03, -4.857923592570070E-04,  4.309947576649292E-02,  7.462442900041741E+00, -6.487693463606867E-03,
2455820.500000000, A.D. 2011-Sep-16 00:00:00.0000,  3.707764058120974E+00, -6.178932777085073E+00, -1.552087925766907E+00, -6.828992112103741E-04,  7.505981588508219E-03, -4.700548154439227E-04,  4.257293638724406E-02,  7.371275432633174E+00, -6.536374722245998E-03,
2455834.500000000, A.D. 2011-Sep-30 00:00:00.0000,  3.697931042717943E+00, -6.073398786047419E+00, -1.558554666258546E+00, -7.220449224054592E-04,  7.570523488909144E-03, -4.536509791425106E-04,  4.204242520824259E-02,  7.279420269415386E+00, -6.585942132111463E-03,
2455848.500000000, A.D. 2011-Oct-14 00:00:00.0000,  3.687540242904802E+00, -5.966951845106381E+00, -1.564786861842162E+00, -7.625956699316939E-04,  7.636410027031324E-03, -4.365417764637662E-04,  4.150786925104749E-02,  7.186864774563015E+00, -6.636426283555027E-03,
